FLOCK 4V-3              
1 46322U 20061BC  21342.91239046  .00001611  00000+0  98136-4 0  9991
2 46322  97.4735  52.8922 0004509 112.5046 247.6662 15.11777236 69681
FLOCK 4V-16             
1 46527U 20061BD  21342.68995645  .00003201  00000+0  16565-3 0  9998
2 46527  97.4233  52.6139 0009712  70.8295 289.3989 15.16906061 65936
FLOCK 4V-15             
1 46528U 20061BE  21342.91137753  .00001256  00000+0  66443-4 0  9992
2 46528  97.4210  53.3219 0004561  97.7049 262.4703 15.17248608 66351
FLOCK 4V-17             
1 46529U 20061BF  21342.74655944  .00001680  00000+0  87659-4 0  9994
2 46529  97.4176  52.9228 0004522  85.6664 274.5087 15.17281613 65524
FLOCK 4V-21             
1 46596U 20061BK  21342.72817959  .00004117  00000+0  21019-3 0  9997
2 46596  97.4152  52.6856 0005383  66.8222 293.3578 15.17240057 63678
FLOCK 4V-18             
1 46597U 20061BG  21342.91645897  .00002364  00000+0  12228-3 0  9993
2 46597  97.4275  53.2797 0008772  76.6086 283.6125 15.17186738 64911
FLOCK 4V-19             
1 46609U 20061BH  21342.75498260  .00003409  00000+0  17511-3 0  9990
2 46609  97.4159  52.8314 0004822  69.9926 290.1826 15.17144551 64453
FLOCK 4V-20             
1 46612U 20061BJ  21342.88375758  .00003042  00000+0  15674-3 0  9995
2 46612  97.4261  53.0942 0009082  81.0583 279.1678 15.17103295 63976
FLOCK 4V-22             
1 46735U 20061BL  21342.77351157  .00001916  00000+0  99431-4 0  9998
2 46735  97.4128  52.4138 0007551  70.3820 289.8222 15.17296584 62794
FLOCK 4V-23             
1 46737U 20061BM  21342.93082376  .00001073  00000+0  57183-4 0  9994
2 46737  97.4173  52.9662 0005897  62.2184 297.9647 15.17293800 62752
FLOCK 4V-24             
1 46738U 20061BN  21343.18640878  .00004597  00000+0  23471-3 0  9996
2 46738  97.4282  53.5157 0007641  81.1155 279.0923 15.17171455 62352
FLOCK 4V-25             
1 46812U 20061BP  21342.89324705  .00004148  00000+0  21216-3 0  9991
2 46812  97.4167  53.0016 0006904  56.8773 303.3113 15.17166419 61964
FLOCK 4E'-1             
1 46813U 20077A   21343.22301685  .00002945  00000+0  14734-3 0  9999
2 46813  97.4483  43.7551 0012213   6.2550 353.8834 15.18144778 61581
FLOCK 4E'-7             
1 46814U 20077B   21343.23980992  .00003139  00000+0  15697-3 0  9990
2 46814  97.4486  43.8924 0012964   1.8515 358.2765 15.18100968 61591
FLOCK 4E'-9             
1 46815U 20077C   21343.17074090  .00001527  00000+0  77340-4 0  9990
2 46815  97.4451  43.7909 0011777 358.8612   1.2593 15.18449626 61591
FLOCK 4E'-8             
1 46816U 20077D   21343.14515620  .00002532  00000+0  12641-3 0  9996
2 46816  97.4505  44.1080 0009854 353.7706   6.3404 15.18368064 61591
FLOCK 4E'-5             
1 46817U 20077E   21343.17337960  .00001120  00000+0  57186-4 0  9995
2 46817  97.4505  44.3761 0013939 345.5216  14.5617 15.18707874 61610
FLOCK 4E'-3             
1 46819U 20077G   21343.19946035  .00003211  00000+0  15834-3 0  9994
2 46819  97.4483  44.3648 0014498 338.8651  21.1982 15.18556089 61620
FLOCK 4E'-2             
1 46820U 20077H   21343.15513145  .00000873  00000+0  45484-4 0  9990
2 46820  97.4532  44.6762 0013036 329.2830  30.7639 15.18551281 61621
FLOCK 4E'-4             
1 46821U 20077J   21343.18581575  .00001212  00000+0  61850-4 0  9999
2 46821  97.4499  44.5849 0013716 325.9403  34.0949 15.18565965 61594
FLOCK 4E'-6             
1 46822U 20077K   21343.14026107  .00003841  00000+0  18892-3 0  9998
2 46822  97.4436  44.0571 0011662 336.9308  23.1392 15.18553939 61619
FLOCK 4V-26             
1 46825U 20061BQ  21342.74143848  .00004652  00000+0  23738-3 0  9997
2 46825  97.4286  53.0292 0007465  85.6880 274.5203 15.17183721 61489
FLOCK 4S-22             
1 47452U 21006AR  21342.78212079  .00001003  00000+0  59759-4 0  9991
2 47452  97.4727  40.8611 0010630 208.9922 151.0720 15.13409203 48413
FLOCK 4S-21             
1 47456U 21006AV  21342.71762674  .00001082  00000+0  64136-4 0  9991
2 47456  97.4733  40.8279 0010456 208.9870 151.0782 15.13419414 48404
FLOCK 4S-11             
1 47462U 21006BB  21342.90030881  .00001035  00000+0  63642-4 0  9996
2 47462  97.4688  40.2769 0007284 231.0344 129.0239 15.12184829 48394
FLOCK 4S-33             
1 47469U 21006BJ  21342.74562778  .00002397  00000+0  13862-3 0  9990
2 47469  97.4687  40.3203 0006442 225.6250 134.4454 15.13198777 48380
FLOCK 4S-12             
1 47471U 21006BL  21342.74134695  .00001707  00000+0  99760-4 0  9992
2 47471  97.4718  40.4615 0007063 229.3797 130.6820 15.13212530 48382
FLOCK 4S-13             
1 47472U 21006BM  21342.72183835  .00002801  00000+0  16113-3 0  9997
2 47472  97.4743  40.5858 0007235 227.0108 133.0518 15.13257602 48383
FLOCK 4S-35             
1 47473U 21006BN  21342.72589869  .00001159  00000+0  68928-4 0  9992
2 47473  97.4736  40.5401 0006738 222.4235 137.6476 15.13181334 48388
FLOCK 4S-8              
1 47474U 21006BP  21342.72435912  .00001041  00000+0  62205-4 0  9994
2 47474  97.4663  40.2392 0007381 226.5184 133.5434 15.13226501 48382
FLOCK 4S-31             
1 47475U 21006BQ  21342.72225967  .00002706  00000+0  15571-3 0  9994
2 47475  97.4667  40.2726 0006749 223.6304 136.4394 15.13275467 48389
FLOCK 4S-34             
1 47477U 21006BS  21342.86278064  .00002443  00000+0  14116-3 0  9999
2 47477  97.4729  40.6505 0006635 222.4048 137.6671 15.13212372 48405
FLOCK 4S-9              
1 47478U 21006BT  21342.73131280  .00002580  00000+0  14880-3 0  9994
2 47478  97.4671  40.2759 0007158 228.8726 131.1888 15.13233678 48381
FLOCK 4S-32             
1 47479U 21006BU  21342.73273091  .00001488  00000+0  87251-4 0  9991
2 47479  97.4676  40.2911 0006598 225.9637 134.1052 15.13279351 48387
FLOCK 4S-39             
1 47490U 21006CF  21342.76137704  .00001016  00000+0  60658-4 0  9996
2 47490  97.4766  40.9103 0009640 213.0472 147.0158 15.13297512 48408
FLOCK 4S-4              
1 47491U 21006CG  21342.89193437  .00000975  00000+0  58284-4 0  9991
2 47491  97.4649  40.5595 0009478 209.9692 150.0998 15.13331719 48423
FLOCK 4S-17             
1 47492U 21006CH  21342.88780308  .00001467  00000+0  85976-4 0  9995
2 47492  97.4774  41.0595 0009787 211.5516 148.5130 15.13314658 48429
FLOCK 4S-3              
1 47494U 21006CK  21343.17524985  .00001064  00000+0  63747-4 0  9992
2 47494  97.4659  40.8336 0009689 208.0809 151.9900 15.13090320 48464
FLOCK 4S-27             
1 47495U 21006CL  21342.88400961  .00001701  00000+0  99075-4 0  9998
2 47495  97.4654  40.6009 0010015 211.3077 148.7559 15.13318398 48422
FLOCK 4S-18             
1 47496U 21006CM  21342.74945135  .00000993  00000+0  59332-4 0  9995
2 47496  97.4761  40.9010 0009949 211.6973 148.3660 15.13334831 48406
FLOCK 4S-26             
1 47497U 21006CN  21342.87761188  .00000930  00000+0  55803-4 0  9994
2 47497  97.4661  40.6243 0010105 210.9307 149.1330 15.13336843 48420
FLOCK 4S-2              
1 47498U 21006CP  21342.74000394  .00000995  00000+0  59485-4 0  9997
2 47498  97.4664  40.5041 0009806 207.9884 152.0821 15.13314329 48402
FLOCK 4S-40             
1 47499U 21006CQ  21342.87311969  .00000940  00000+0  56297-4 0  9993
2 47499  97.4757  41.0295 0010035 211.9190 148.1434 15.13384117 48424
FLOCK 4S-19             
1 47500U 21006CR  21342.73508107  .00000973  00000+0  58205-4 0  9990
2 47500  97.4758  40.9065 0010130 209.7774 150.2882 15.13331751 48405
FLOCK 4S-28             
1 47514U 21006DE  21342.69739948  .00001137  00000+0  67565-4 0  9991
2 47514  97.4651  40.2235 0007481 220.6849 139.3824 15.13240524 49349
FLOCK 4S-5              
1 47515U 21006DF  21342.76079663  .00001198  00000+0  70972-4 0  9994
2 47515  97.4644  40.2667 0007762 222.7401 137.3227 15.13269144 48398
FLOCK 4S-16             
1 47516U 21006DG  21343.16651877  .00000921  00000+0  55429-4 0  9996
2 47516  97.4764  41.1360 0007524 222.3831 137.6820 15.13264898 49418
FLOCK 4S-6              
1 47518U 21006DJ  21342.70666217  .00001488  00000+0  87223-4 0  9997
2 47518  97.4656  40.2312 0007542 224.7842 135.2781 15.13289527 49354
FLOCK 4S-29             
1 47520U 21006DL  21342.90502320  .00001207  00000+0  71489-4 0  9992
2 47520  97.4663  40.4517 0007074 222.3037 137.7649 15.13272205 48415
FLOCK 4S-15             
1 47521U 21006DM  21342.88564989  .00001415  00000+0  82945-4 0  9999
2 47521  97.4750  40.8645 0007418 223.8262 136.2381 15.13367956 49389
FLOCK 4S-37             
1 47522U 21006DN  21342.71043144  .00001940  00000+0  11272-3 0  9994
2 47522  97.4751  40.6186 0007161 223.7758 136.2906 15.13259812 49354
FLOCK 4S-10             
1 47523U 21006DP  21342.74383095  .00002272  00000+0  13156-3 0  9992
2 47523  97.4680  40.3013 0007188 229.4264 130.6342 15.13214104 48385
FLOCK 4S-7              
1 47527U 21006DT  21342.71483015  .00001603  00000+0  93692-4 0  9997
2 47527  97.4658  40.2278 0007450 226.2694 133.7921 15.13275492 49341
FLOCK 4S-14             
1 47528U 21006DU  21343.17831396  .00002221  00000+0  12842-3 0  9992
2 47528  97.4749  41.0753 0007379 223.6782 136.3866 15.13287758 49412
FLOCK 4S-36             
1 47530U 21006DW  21342.71866819  .00002955  00000+0  16968-3 0  9999
2 47530  97.4740  40.5808 0006860 222.1910 137.8794 15.13282660 49347
FLOCK 4S-24             
1 47539U 21006DZ  21342.72082097  .00001031  00000+0  61365-4 0  9993
2 47539  97.4693  40.6488 0010641 209.2386 150.8251 15.13383241 48409
FLOCK 4S-20             
1 47540U 21006EA  21342.72376882  .00000981  00000+0  58586-4 0  9997
2 47540  97.4747  40.8732 0010314 209.1840 150.8816 15.13373950 47475
FLOCK 4S-25             
1 47542U 21006EC  21342.73254189  .00001064  00000+0  63275-4 0  9999
2 47542  97.4673  40.5512 0010237 210.3459 149.7181 15.13349757 47472
FLOCK 4S-1              
1 47543U 21006ED  21342.72831379  .00000986  00000+0  58874-4 0  9992
2 47543  97.4671  40.5497 0009847 206.9100 153.1622 15.13376614 47473
FLOCK 4S-30             
1 47544U 21006EE  21342.70999117  .00002528  00000+0  14560-3 0  9993
2 47544  97.4666  40.2816 0007098 222.6213 137.4468 15.13293060 49340
